{"fetched_at":"2026-07-14T17:40:43.408Z","source":"https://celestrak.org/NORAD/elements/gp.php?NAME=GHGSAT&FORMAT=JSON","constellation":"ghgsat","records":[{"OBJECT_NAME":"GHGSAT-C1","OBJECT_ID":"2020-061G","EPOCH":"2026-07-14T05:02:42.755712","CLASSIFICATION_TYPE":"U","MEAN_MOTION":15.73390392,"ECCENTRICITY":0.0000926,"INCLINATION":97.2101,"RA_OF_ASC_NODE":281.2606,"ARG_OF_PERICENTER":175.3511,"MEAN_ANOMALY":184.7762,"EPHEMERIS_TYPE":0,"NORAD_CAT_ID":46278,"ELEMENT_SET_NO":999,"REV_AT_EPOCH":32772,"BSTAR":0.00021096,"MEAN_MOTION_DOT":0.00029102,"MEAN_MOTION_DDOT":0},{"OBJECT_NAME":"GHGSAT-C2","OBJECT_ID":"2021-006DA","EPOCH":"2026-07-14T02:03:49.547232","CLASSIFICATION_TYPE":"U","MEAN_MOTION":15.3809994,"ECCENTRICITY":0.0006733,"INCLINATION":97.2132,"RA_OF_ASC_NODE":241.8919,"ARG_OF_PERICENTER":78.4077,"MEAN_ANOMALY":281.7924,"EPHEMERIS_TYPE":0,"NORAD_CAT_ID":47509,"ELEMENT_SET_NO":999,"REV_AT_EPOCH":30398,"BSTAR":0.00010353,"MEAN_MOTION_DOT":0.00003804,"MEAN_MOTION_DDOT":0},{"OBJECT_NAME":"GHGSAT-C3","OBJECT_ID":"2022-057F","EPOCH":"2026-07-14T04:05:25.516608","CLASSIFICATION_TYPE":"U","MEAN_MOTION":15.34672397,"ECCENTRICITY":0.0006393,"INCLINATION":97.6626,"RA_OF_ASC_NODE":341.8481,"ARG_OF_PERICENTER":38.382,"MEAN_ANOMALY":321.7876,"EPHEMERIS_TYPE":0,"NORAD_CAT_ID":52737,"ELEMENT_SET_NO":999,"REV_AT_EPOCH":22967,"BSTAR":0.00012558,"MEAN_MOTION_DOT":0.00004136,"MEAN_MOTION_DDOT":0},{"OBJECT_NAME":"GHGSAT-C5","OBJECT_ID":"2022-057N","EPOCH":"2026-07-14T05:02:03.617376","CLASSIFICATION_TYPE":"U","MEAN_MOTION":15.34648089,"ECCENTRICITY":0.0007084,"INCLINATION":97.6713,"RA_OF_ASC_NODE":343.4941,"ARG_OF_PERICENTER":35.376,"MEAN_ANOMALY":324.7951,"EPHEMERIS_TYPE":0,"NORAD_CAT_ID":52744,"ELEMENT_SET_NO":999,"REV_AT_EPOCH":22968,"BSTAR":0.00011276,"MEAN_MOTION_DOT":0.00003702,"MEAN_MOTION_DDOT":0},{"OBJECT_NAME":"GHGSAT-C4","OBJECT_ID":"2022-057Q","EPOCH":"2026-07-14T04:35:15.391968","CLASSIFICATION_TYPE":"U","MEAN_MOTION":15.34658554,"ECCENTRICITY":0.0006254,"INCLINATION":97.6554,"RA_OF_ASC_NODE":340.6736,"ARG_OF_PERICENTER":22.7138,"MEAN_ANOMALY":337.438,"EPHEMERIS_TYPE":0,"NORAD_CAT_ID":52746,"ELEMENT_SET_NO":999,"REV_AT_EPOCH":22968,"BSTAR":0.00011665,"MEAN_MOTION_DOT":0.00003834,"MEAN_MOTION_DDOT":0},{"OBJECT_NAME":"GHGSAT-C8","OBJECT_ID":"2023-054J","EPOCH":"2026-07-14T05:12:02.283840","CLASSIFICATION_TYPE":"U","MEAN_MOTION":15.53752675,"ECCENTRICITY":0.0003065,"INCLINATION":97.2969,"RA_OF_ASC_NODE":104.9123,"ARG_OF_PERICENTER":5.3409,"MEAN_ANOMALY":354.7877,"EPHEMERIS_TYPE":0,"NORAD_CAT_ID":56186,"ELEMENT_SET_NO":999,"REV_AT_EPOCH":18263,"BSTAR":0.00016184,"MEAN_MOTION_DOT":0.00010271,"MEAN_MOTION_DDOT":0},{"OBJECT_NAME":"GHGSAT-C6","OBJECT_ID":"2023-054AC","EPOCH":"2026-07-14T04:23:21.932736","CLASSIFICATION_TYPE":"U","MEAN_MOTION":15.53728465,"ECCENTRICITY":0.000356,"INCLINATION":97.303,"RA_OF_ASC_NODE":105.5803,"ARG_OF_PERICENTER":312.6216,"MEAN_ANOMALY":47.4737,"EPHEMERIS_TYPE":0,"NORAD_CAT_ID":56204,"ELEMENT_SET_NO":999,"REV_AT_EPOCH":18264,"BSTAR":0.000156,"MEAN_MOTION_DOT":0.00009888,"MEAN_MOTION_DDOT":0},{"OBJECT_NAME":"GHGSAT-C7","OBJECT_ID":"2023-054AH","EPOCH":"2026-07-14T04:18:18.475200","CLASSIFICATION_TYPE":"U","MEAN_MOTION":15.50431481,"ECCENTRICITY":0.0005055,"INCLINATION":97.2978,"RA_OF_ASC_NODE":103.9003,"ARG_OF_PERICENTER":309.0681,"MEAN_ANOMALY":51.012,"EPHEMERIS_TYPE":0,"NORAD_CAT_ID":56209,"ELEMENT_SET_NO":999,"REV_AT_EPOCH":18257,"BSTAR":0.00012107,"MEAN_MOTION_DOT":0.00006795,"MEAN_MOTION_DDOT":0},{"OBJECT_NAME":"GHGSAT-C12","OBJECT_ID":"2025-135B","EPOCH":"2026-07-14T04:00:09.099072","CLASSIFICATION_TYPE":"U","MEAN_MOTION":15.20441156,"ECCENTRICITY":0.0006431,"INCLINATION":97.477,"RA_OF_ASC_NODE":309.74,"ARG_OF_PERICENTER":83.7441,"MEAN_ANOMALY":276.4526,"EPHEMERIS_TYPE":0,"NORAD_CAT_ID":64529,"ELEMENT_SET_NO":999,"REV_AT_EPOCH":5892,"BSTAR":0.000088888,"MEAN_MOTION_DOT":0.0000187,"MEAN_MOTION_DDOT":0},{"OBJECT_NAME":"GHGSAT-C13","OBJECT_ID":"2025-135W","EPOCH":"2026-07-14T02:08:42.368064","CLASSIFICATION_TYPE":"U","MEAN_MOTION":15.21395478,"ECCENTRICITY":0.0001949,"INCLINATION":97.4803,"RA_OF_ASC_NODE":310.2761,"ARG_OF_PERICENTER":68.7439,"MEAN_ANOMALY":291.4005,"EPHEMERIS_TYPE":0,"NORAD_CAT_ID":64548,"ELEMENT_SET_NO":999,"REV_AT_EPOCH":5894,"BSTAR":0.00014312,"MEAN_MOTION_DOT":0.0000314,"MEAN_MOTION_DDOT":0}]}
