GHGSAT-C1               
1 46278U 20061G   26195.21021708  .00029102  00000+0  21096-3 0  9994
2 46278  97.2101 281.2606 0000926 175.3511 184.7762 15.73390392327722
GHGSAT-C2               
1 47509U 21006DA  26195.08599013  .00003804  00000+0  10353-3 0  9991
2 47509  97.2132 241.8919 0006733  78.4077 281.7924 15.38099940303981
GHGSAT-C3               
1 52737U 22057F   26195.17043422  .00004136  00000+0  12558-3 0  9993
2 52737  97.6626 341.8481 0006393  38.3820 321.7876 15.34672397229673
GHGSAT-C5               
1 52744U 22057N   26195.20976409  .00003702  00000+0  11276-3 0  9999
2 52744  97.6713 343.4941 0007084  35.3760 324.7951 15.34648089229684
GHGSAT-C4               
1 52746U 22057Q   26195.19115037  .00003834  00000+0  11665-3 0  9999
2 52746  97.6554 340.6736 0006254  22.7138 337.4380 15.34658554229682
GHGSAT-C8               
1 56186U 23054J   26195.21669310  .00010271  00000+0  16184-3 0  9994
2 56186  97.2969 104.9123 0003065   5.3409 354.7877 15.53752675182632
GHGSAT-C6               
1 56204U 23054AC  26195.18289274  .00009888  00000+0  15600-3 0  9992
2 56204  97.3030 105.5803 0003560 312.6216  47.4737 15.53728465182647
GHGSAT-C7               
1 56209U 23054AH  26195.17938050  .00006795  00000+0  12107-3 0  9992
2 56209  97.2978 103.9003 0005055 309.0681  51.0120 15.50431481182578
GHGSAT-C12              
1 64529U 25135B   26195.16677198  .00001870  00000+0  88888-4 0  9999
2 64529  97.4770 309.7400 0006431  83.7441 276.4526 15.20441156 58921
GHGSAT-C13              
1 64548U 25135W   26195.08937926  .00003140  00000+0  14312-3 0  9991
2 64548  97.4803 310.2761 0001949  68.7439 291.4005 15.21395478 58942
